CCSDS_OMM_VERS = 2.0
CREATION_DATE  = 
ORIGINATOR     = 

OBJECT_NAME    = SL-14 R/B
OBJECT_ID      = 1991-042B
CENTER_NAME    = EARTH
REF_FRAME      = TEME
TIME_SYSTEM    = UTC
MEAN_ELEMENT_THEORY = SGP/SGP4

EPOCH          = 2026-02-24T17:24:17.299872
MEAN_MOTION    = 14.81814415
ECCENTRICITY   = .0015576
INCLINATION    = 82.4900
RA_OF_ASC_NODE = 232.3412
ARG_OF_PERICENTER = 285.1575
MEAN_ANOMALY   = 74.7916

EPHEMERIS_TYPE = 0
CLASSIFICATION_TYPE = U
NORAD_CAT_ID   = 21423
ELEMENT_SET_NO = 999
REV_AT_EPOCH   = 85115
BSTAR          = .53223937E-4
MEAN_MOTION_DOT = .444E-5
MEAN_MOTION_DDOT = 0

CCSDS_OMM_VERS = 2.0
CREATION_DATE  = 
ORIGINATOR     = 

OBJECT_NAME    = ERS-1
OBJECT_ID      = 1991-050A
CENTER_NAME    = EARTH
REF_FRAME      = TEME
TIME_SYSTEM    = UTC
MEAN_ELEMENT_THEORY = SGP/SGP4

EPOCH          = 2026-02-25T01:06:38.735424
MEAN_MOTION    = 14.39437851
ECCENTRICITY   = .0031042
INCLINATION    = 98.7890
RA_OF_ASC_NODE = 73.9630
ARG_OF_PERICENTER = 238.7400
MEAN_ANOMALY   = 121.0745

EPHEMERIS_TYPE = 0
CLASSIFICATION_TYPE = U
NORAD_CAT_ID   = 21574
ELEMENT_SET_NO = 999
REV_AT_EPOCH   = 81391
BSTAR          = .10607E-3
MEAN_MOTION_DOT = .285E-5
MEAN_MOTION_DDOT = 0

CCSDS_OMM_VERS = 2.0
CREATION_DATE  = 
ORIGINATOR     = 

OBJECT_NAME    = ARIANE 40 R/B
OBJECT_ID      = 1991-050F
CENTER_NAME    = EARTH
REF_FRAME      = TEME
TIME_SYSTEM    = UTC
MEAN_ELEMENT_THEORY = SGP/SGP4

EPOCH          = 2026-02-25T03:03:19.336032
MEAN_MOTION    = 14.42882973
ECCENTRICITY   = .0004344
INCLINATION    = 98.2041
RA_OF_ASC_NODE = 108.8337
ARG_OF_PERICENTER = 108.3367
MEAN_ANOMALY   = 251.8297

EPHEMERIS_TYPE = 0
CLASSIFICATION_TYPE = U
NORAD_CAT_ID   = 21610
ELEMENT_SET_NO = 999
REV_AT_EPOCH   = 81718
BSTAR          = .84694E-4
MEAN_MOTION_DOT = .241E-5
MEAN_MOTION_DDOT = 0

CCSDS_OMM_VERS = 2.0
CREATION_DATE  = 
ORIGINATOR     = 

OBJECT_NAME    = INTERCOSMOS 25
OBJECT_ID      = 1991-086A
CENTER_NAME    = EARTH
REF_FRAME      = TEME
TIME_SYSTEM    = UTC
MEAN_ELEMENT_THEORY = SGP/SGP4

EPOCH          = 2026-02-25T02:36:51.869088
MEAN_MOTION    = 12.11958104
ECCENTRICITY   = .1487097
INCLINATION    = 82.6072
RA_OF_ASC_NODE = 317.6110
ARG_OF_PERICENTER = 144.0345
MEAN_ANOMALY   = 227.0726

EPHEMERIS_TYPE = 0
CLASSIFICATION_TYPE = U
NORAD_CAT_ID   = 21819
ELEMENT_SET_NO = 999
REV_AT_EPOCH   = 49516
BSTAR          = .24731E-3
MEAN_MOTION_DOT = .1292E-4
MEAN_MOTION_DDOT = 0

CCSDS_OMM_VERS = 2.0
CREATION_DATE  = 
ORIGINATOR     = 

OBJECT_NAME    = SL-8 R/B
OBJECT_ID      = 1992-008B
CENTER_NAME    = EARTH
REF_FRAME      = TEME
TIME_SYSTEM    = UTC
MEAN_ELEMENT_THEORY = SGP/SGP4

EPOCH          = 2026-02-25T03:41:01.020192
MEAN_MOTION    = 13.75969931
ECCENTRICITY   = .0034893
INCLINATION    = 82.9235
RA_OF_ASC_NODE = 277.1058
ARG_OF_PERICENTER = 167.6842
MEAN_ANOMALY   = 311.4648

EPHEMERIS_TYPE = 0
CLASSIFICATION_TYPE = U
NORAD_CAT_ID   = 21876
ELEMENT_SET_NO = 999
REV_AT_EPOCH   = 70769
BSTAR          = -.33631E-5
MEAN_MOTION_DOT = .12E-6
MEAN_MOTION_DDOT = 0

CCSDS_OMM_VERS = 2.0
CREATION_DATE  = 
ORIGINATOR     = 

OBJECT_NAME    = SL-8 R/B
OBJECT_ID      = 1992-020B
CENTER_NAME    = EARTH
REF_FRAME      = TEME
TIME_SYSTEM    = UTC
MEAN_ELEMENT_THEORY = SGP/SGP4

EPOCH          = 2026-02-24T18:22:13.527840
MEAN_MOTION    = 13.75547832
ECCENTRICITY   = .00282591
INCLINATION    = 82.9344
RA_OF_ASC_NODE = 163.3543
ARG_OF_PERICENTER = 336.1980
MEAN_ANOMALY   = 187.8825

EPHEMERIS_TYPE = 0
CLASSIFICATION_TYPE = U
NORAD_CAT_ID   = 21938
ELEMENT_SET_NO = 999
REV_AT_EPOCH   = 69935
BSTAR          = .7402057E-4
MEAN_MOTION_DOT = .86E-6
MEAN_MOTION_DDOT = 0

CCSDS_OMM_VERS = 2.0
CREATION_DATE  = 
ORIGINATOR     = 

OBJECT_NAME    = USA 81
OBJECT_ID      = 1992-023A
CENTER_NAME    = EARTH
REF_FRAME      = TEME
TIME_SYSTEM    = UTC
MEAN_ELEMENT_THEORY = SGP/SGP4

EPOCH          = 2026-02-25T03:42:07.390944
MEAN_MOTION    = 14.32363128
ECCENTRICITY   = .0002746
INCLINATION    = 85.0108
RA_OF_ASC_NODE = 138.6708
ARG_OF_PERICENTER = 88.5565
MEAN_ANOMALY   = 271.5942

EPHEMERIS_TYPE = 0
CLASSIFICATION_TYPE = U
NORAD_CAT_ID   = 21949
ELEMENT_SET_NO = 999
REV_AT_EPOCH   = 9299
BSTAR          = .51911E-4
MEAN_MOTION_DOT = .16E-5
MEAN_MOTION_DDOT = 0

CCSDS_OMM_VERS = 2.0
CREATION_DATE  = 
ORIGINATOR     = 

OBJECT_NAME    = COSMOS 2219
OBJECT_ID      = 1992-076A
CENTER_NAME    = EARTH
REF_FRAME      = TEME
TIME_SYSTEM    = UTC
MEAN_ELEMENT_THEORY = SGP/SGP4

EPOCH          = 2026-02-25T03:24:12.835872
MEAN_MOTION    = 14.14083844
ECCENTRICITY   = .0019584
INCLINATION    = 71.0599
RA_OF_ASC_NODE = 44.2982
ARG_OF_PERICENTER = 223.7976
MEAN_ANOMALY   = 136.1594

EPHEMERIS_TYPE = 0
CLASSIFICATION_TYPE = U
NORAD_CAT_ID   = 22219
ELEMENT_SET_NO = 999
REV_AT_EPOCH   = 71660
BSTAR          = .20699E-3
MEAN_MOTION_DOT = .348E-5
MEAN_MOTION_DDOT = 0

CCSDS_OMM_VERS = 2.0
CREATION_DATE  = 
ORIGINATOR     = 

OBJECT_NAME    = SL-16 R/B
OBJECT_ID      = 1992-076B
CENTER_NAME    = EARTH
REF_FRAME      = TEME
TIME_SYSTEM    = UTC
MEAN_ELEMENT_THEORY = SGP/SGP4

EPOCH          = 2026-02-24T11:50:41.718624
MEAN_MOTION    = 14.16856265
ECCENTRICITY   = .00109215
INCLINATION    = 70.9984
RA_OF_ASC_NODE = 216.1695
ARG_OF_PERICENTER = 120.6200
MEAN_ANOMALY   = 296.0036

EPHEMERIS_TYPE = 0
CLASSIFICATION_TYPE = U
NORAD_CAT_ID   = 22220
ELEMENT_SET_NO = 999
REV_AT_EPOCH   = 71996
BSTAR          = .15828215E-3
MEAN_MOTION_DOT = .27E-5
MEAN_MOTION_DDOT = 0

CCSDS_OMM_VERS = 2.0
CREATION_DATE  = 
ORIGINATOR     = 

OBJECT_NAME    = COSMOS 2221
OBJECT_ID      = 1992-080A
CENTER_NAME    = EARTH
REF_FRAME      = TEME
TIME_SYSTEM    = UTC
MEAN_ELEMENT_THEORY = SGP/SGP4

EPOCH          = 2026-02-25T03:08:37.121280
MEAN_MOTION    = 14.96145631
ECCENTRICITY   = .0013035
INCLINATION    = 82.5029
RA_OF_ASC_NODE = 291.1116
ARG_OF_PERICENTER = 231.8762
MEAN_ANOMALY   = 128.1286

EPHEMERIS_TYPE = 0
CLASSIFICATION_TYPE = U
NORAD_CAT_ID   = 22236
ELEMENT_SET_NO = 999
REV_AT_EPOCH   = 77891
BSTAR          = .1369E-3
MEAN_MOTION_DOT = .1568E-4
MEAN_MOTION_DDOT = 0

CCSDS_OMM_VERS = 2.0
CREATION_DATE  = 
ORIGINATOR     = 

OBJECT_NAME    = SL-16 R/B
OBJECT_ID      = 1992-093B
CENTER_NAME    = EARTH
REF_FRAME      = TEME
TIME_SYSTEM    = UTC
MEAN_ELEMENT_THEORY = SGP/SGP4

EPOCH          = 2026-02-25T03:50:43.496160
MEAN_MOTION    = 14.15448996
ECCENTRICITY   = .0005973
INCLINATION    = 71.0227
RA_OF_ASC_NODE = 30.5670
ARG_OF_PERICENTER = 307.1999
MEAN_ANOMALY   = 52.8578

EPHEMERIS_TYPE = 0
CLASSIFICATION_TYPE = U
NORAD_CAT_ID   = 22285
ELEMENT_SET_NO = 999
REV_AT_EPOCH   = 71138
BSTAR          = .87335E-4
MEAN_MOTION_DOT = .123E-5
MEAN_MOTION_DDOT = 0

CCSDS_OMM_VERS = 2.0
CREATION_DATE  = 
ORIGINATOR     = 

OBJECT_NAME    = COSMOS 2228
OBJECT_ID      = 1992-094A
CENTER_NAME    = EARTH
REF_FRAME      = TEME
TIME_SYSTEM    = UTC
MEAN_ELEMENT_THEORY = SGP/SGP4

EPOCH          = 2026-02-25T03:44:04.548480
MEAN_MOTION    = 14.97120610
ECCENTRICITY   = .0017682
INCLINATION    = 82.5147
RA_OF_ASC_NODE = 249.3137
ARG_OF_PERICENTER = 348.8234
MEAN_ANOMALY   = 11.2592

EPHEMERIS_TYPE = 0
CLASSIFICATION_TYPE = U
NORAD_CAT_ID   = 22286
ELEMENT_SET_NO = 999
REV_AT_EPOCH   = 77418
BSTAR          = .17133E-3
MEAN_MOTION_DOT = .2009E-4
MEAN_MOTION_DDOT = 0

