SL-14 R/B               
1 21423U 91042B   26055.72520023  .00000444  00000+0  53224-4 0  9998
2 21423  82.4900 232.3412 0015576 285.1575  74.7916 14.81814415851152
ERS-1                   
1 21574U 91050A   26056.04628166  .00000285  00000+0  10607-3 0  9997
2 21574  98.7890  73.9630 0031042 238.7400 121.0745 14.39437851813911
ARIANE 40 R/B           
1 21610U 91050F   26056.12730713  .00000241  00000+0  84694-4 0  9999
2 21610  98.2041 108.8337 0004344 108.3367 251.8297 14.42882973817186
INTERCOSMOS 25          
1 21819U 91086A   26056.10893367  .00001292  00000+0  24731-3 0  9994
2 21819  82.6072 317.6110 1487097 144.0345 227.0726 12.11958104495167
SL-8 R/B                
1 21876U 92008B   26056.15348403  .00000012  00000+0 -33631-5 0  9994
2 21876  82.9235 277.1058 0034893 167.6842 311.4648 13.75969931707695
SL-8 R/B                
1 21938U 92020B   26055.76543435  .00000086  00000+0  74021-4 0  9992
2 21938  82.9344 163.3543 0028259 336.1980 187.8825 13.75547832699352
USA 81                  
1 21949U 92023A   26056.15425221  .00000160  00000+0  51911-4 0  9999
2 21949  85.0108 138.6708 0002746  88.5565 271.5942 14.32363128 92990
COSMOS 2219             
1 22219U 92076A   26056.14181523  .00000348  00000+0  20699-3 0  9997
2 22219  71.0599  44.2982 0019584 223.7976 136.1594 14.14083844716607
SL-16 R/B               
1 22220U 92076B   26055.49353841  .00000270  00000+0  15828-3 0  9992
2 22220  70.9984 216.1695 0010921 120.6200 296.0036 14.16856265719963
COSMOS 2221             
1 22236U 92080A   26056.13098520  .00001568  00000+0  13690-3 0  9992
2 22236  82.5029 291.1116 0013035 231.8762 128.1286 14.96145631778915
SL-16 R/B               
1 22285U 92093B   26056.16022565  .00000123  00000+0  87335-4 0  9993
2 22285  71.0227  30.5670 0005973 307.1999  52.8578 14.15448996711389
COSMOS 2228             
1 22286U 92094A   26056.15560820  .00002009  00000+0  17133-3 0  9998
2 22286  82.5147 249.3137 0017682 348.8234  11.2592 14.97120610774182
